<?xml version="1.0" encoding="UTF-8"?>
<ndm xmlns:xsi="http://www.w3.org/2001/XMLSchema-instance" xsi:noNamespaceSchemaLocation="https://sanaregistry.org/r/ndmxml_unqualified/ndmxml-2.0.0-master-2.0.xsd">
<omm id="CCSDS_OMM_VERS" version="2.0">
<header><CREATION_DATE/><ORIGINATOR/></header><body><segment><metadata><OBJECT_NAME>KUIPER-00027</OBJECT_NAME><OBJECT_ID>2025-088S</OBJECT_ID><CENTER_NAME>EARTH</CENTER_NAME><REF_FRAME>TEME</REF_FRAME><TIME_SYSTEM>UTC</TIME_SYSTEM><MEAN_ELEMENT_THEORY>SGP4</MEAN_ELEMENT_THEORY></metadata><data><meanElements><EPOCH>2025-08-02T22:00:01.999584</EPOCH><MEAN_MOTION>15.36660038</MEAN_MOTION><ECCENTRICITY>.000161</ECCENTRICITY><INCLINATION>51.8733</INCLINATION><RA_OF_ASC_NODE>354.0354</RA_OF_ASC_NODE><ARG_OF_PERICENTER>101.0540</ARG_OF_PERICENTER><MEAN_ANOMALY>246.4933</MEAN_ANOMALY></meanElements><tleParameters><EPHEMERIS_TYPE>0</EPHEMERIS_TYPE><CLASSIFICATION_TYPE>U</CLASSIFICATION_TYPE><NORAD_CAT_ID>63740</NORAD_CAT_ID><ELEMENT_SET_NO>999</ELEMENT_SET_NO><REV_AT_EPOCH>1505</REV_AT_EPOCH><BSTAR>.11142E-2</BSTAR><MEAN_MOTION_DOT>.40339E-3</MEAN_MOTION_DOT><MEAN_MOTION_DDOT>0</MEAN_MOTION_DDOT></tleParameters></data></segment></body></omm>
<omm id="CCSDS_OMM_VERS" version="2.0">
<header><CREATION_DATE/><ORIGINATOR/></header><body><segment><metadata><OBJECT_NAME>KUIPER-00028</OBJECT_NAME><OBJECT_ID>2025-088T</OBJECT_ID><CENTER_NAME>EARTH</CENTER_NAME><REF_FRAME>TEME</REF_FRAME><TIME_SYSTEM>UTC</TIME_SYSTEM><MEAN_ELEMENT_THEORY>SGP4</MEAN_ELEMENT_THEORY></metadata><data><meanElements><EPOCH>2025-08-02T09:20:33.623520</EPOCH><MEAN_MOTION>15.38487901</MEAN_MOTION><ECCENTRICITY>.0001651</ECCENTRICITY><INCLINATION>51.8723</INCLINATION><RA_OF_ASC_NODE>356.4651</RA_OF_ASC_NODE><ARG_OF_PERICENTER>62.7558</ARG_OF_PERICENTER><MEAN_ANOMALY>297.3597</MEAN_ANOMALY></meanElements><tleParameters><EPHEMERIS_TYPE>0</EPHEMERIS_TYPE><CLASSIFICATION_TYPE>U</CLASSIFICATION_TYPE><NORAD_CAT_ID>63741</NORAD_CAT_ID><ELEMENT_SET_NO>999</ELEMENT_SET_NO><REV_AT_EPOCH>1539</REV_AT_EPOCH><BSTAR>.48608E-3</BSTAR><MEAN_MOTION_DOT>.18403E-3</MEAN_MOTION_DOT><MEAN_MOTION_DDOT>0</MEAN_MOTION_DDOT></tleParameters></data></segment></body></omm>
<omm id="CCSDS_OMM_VERS" version="2.0">
<header><CREATION_DATE/><ORIGINATOR/></header><body><segment><metadata><OBJECT_NAME>KUIPER-00029</OBJECT_NAME><OBJECT_ID>2025-088U</OBJECT_ID><CENTER_NAME>EARTH</CENTER_NAME><REF_FRAME>TEME</REF_FRAME><TIME_SYSTEM>UTC</TIME_SYSTEM><MEAN_ELEMENT_THEORY>SGP4</MEAN_ELEMENT_THEORY></metadata><data><meanElements><EPOCH>2025-08-02T09:12:56.297088</EPOCH><MEAN_MOTION>15.37285916</MEAN_MOTION><ECCENTRICITY>.0004709</ECCENTRICITY><INCLINATION>51.8715</INCLINATION><RA_OF_ASC_NODE>357.1560</RA_OF_ASC_NODE><ARG_OF_PERICENTER>94.0309</ARG_OF_PERICENTER><MEAN_ANOMALY>266.1216</MEAN_ANOMALY></meanElements><tleParameters><EPHEMERIS_TYPE>0</EPHEMERIS_TYPE><CLASSIFICATION_TYPE>U</CLASSIFICATION_TYPE><NORAD_CAT_ID>63742</NORAD_CAT_ID><ELEMENT_SET_NO>999</ELEMENT_SET_NO><REV_AT_EPOCH>1491</REV_AT_EPOCH><BSTAR>.47476E-3</BSTAR><MEAN_MOTION_DOT>.17267E-3</MEAN_MOTION_DOT><MEAN_MOTION_DDOT>0</MEAN_MOTION_DDOT></tleParameters></data></segment></body></omm>
<omm id="CCSDS_OMM_VERS" version="2.0">
<header><CREATION_DATE/><ORIGINATOR/></header><body><segment><metadata><OBJECT_NAME>KUIPER-00030</OBJECT_NAME><OBJECT_ID>2025-088V</OBJECT_ID><CENTER_NAME>EARTH</CENTER_NAME><REF_FRAME>TEME</REF_FRAME><TIME_SYSTEM>UTC</TIME_SYSTEM><MEAN_ELEMENT_THEORY>SGP4</MEAN_ELEMENT_THEORY></metadata><data><meanElements><EPOCH>2025-08-03T06:00:02.000160</EPOCH><MEAN_MOTION>15.09825706</MEAN_MOTION><ECCENTRICITY>.0012646</ECCENTRICITY><INCLINATION>51.8881</INCLINATION><RA_OF_ASC_NODE>358.2113</RA_OF_ASC_NODE><ARG_OF_PERICENTER>75.9808</ARG_OF_PERICENTER><MEAN_ANOMALY>33.8093</MEAN_ANOMALY></meanElements><tleParameters><EPHEMERIS_TYPE>0</EPHEMERIS_TYPE><CLASSIFICATION_TYPE>U</CLASSIFICATION_TYPE><NORAD_CAT_ID>63743</NORAD_CAT_ID><ELEMENT_SET_NO>999</ELEMENT_SET_NO><REV_AT_EPOCH>1525</REV_AT_EPOCH><BSTAR>-.1416E+0</BSTAR><MEAN_MOTION_DOT>-.2084847E-1</MEAN_MOTION_DOT><MEAN_MOTION_DDOT>0</MEAN_MOTION_DDOT></tleParameters></data></segment></body></omm>
<omm id="CCSDS_OMM_VERS" version="2.0">
<header><CREATION_DATE/><ORIGINATOR/></header><body><segment><metadata><OBJECT_NAME>KUIPER-00031</OBJECT_NAME><OBJECT_ID>2025-088W</OBJECT_ID><CENTER_NAME>EARTH</CENTER_NAME><REF_FRAME>TEME</REF_FRAME><TIME_SYSTEM>UTC</TIME_SYSTEM><MEAN_ELEMENT_THEORY>SGP4</MEAN_ELEMENT_THEORY></metadata><data><meanElements><EPOCH>2025-08-03T06:00:02.000160</EPOCH><MEAN_MOTION>15.35309177</MEAN_MOTION><ECCENTRICITY>.0003348</ECCENTRICITY><INCLINATION>51.8713</INCLINATION><RA_OF_ASC_NODE>352.6132</RA_OF_ASC_NODE><ARG_OF_PERICENTER>99.2494</ARG_OF_PERICENTER><MEAN_ANOMALY>197.5912</MEAN_ANOMALY></meanElements><tleParameters><EPHEMERIS_TYPE>0</EPHEMERIS_TYPE><CLASSIFICATION_TYPE>U</CLASSIFICATION_TYPE><NORAD_CAT_ID>63744</NORAD_CAT_ID><ELEMENT_SET_NO>999</ELEMENT_SET_NO><REV_AT_EPOCH>1504</REV_AT_EPOCH><BSTAR>.19759E-2</BSTAR><MEAN_MOTION_DOT>.69047E-3</MEAN_MOTION_DOT><MEAN_MOTION_DDOT>0</MEAN_MOTION_DDOT></tleParameters></data></segment></body></omm>
<omm id="CCSDS_OMM_VERS" version="2.0">
<header><CREATION_DATE/><ORIGINATOR/></header><body><segment><metadata><OBJECT_NAME>KUIPER-00032</OBJECT_NAME><OBJECT_ID>2025-088X</OBJECT_ID><CENTER_NAME>EARTH</CENTER_NAME><REF_FRAME>TEME</REF_FRAME><TIME_SYSTEM>UTC</TIME_SYSTEM><MEAN_ELEMENT_THEORY>SGP4</MEAN_ELEMENT_THEORY></metadata><data><meanElements><EPOCH>2025-08-03T06:00:02.000160</EPOCH><MEAN_MOTION>15.28601051</MEAN_MOTION><ECCENTRICITY>.0005233</ECCENTRICITY><INCLINATION>51.8752</INCLINATION><RA_OF_ASC_NODE>353.0777</RA_OF_ASC_NODE><ARG_OF_PERICENTER>68.6068</ARG_OF_PERICENTER><MEAN_ANOMALY>343.7613</MEAN_ANOMALY></meanElements><tleParameters><EPHEMERIS_TYPE>0</EPHEMERIS_TYPE><CLASSIFICATION_TYPE>U</CLASSIFICATION_TYPE><NORAD_CAT_ID>63745</NORAD_CAT_ID><ELEMENT_SET_NO>999</ELEMENT_SET_NO><REV_AT_EPOCH>1604</REV_AT_EPOCH><BSTAR>-.25458E-1</BSTAR><MEAN_MOTION_DOT>-.667114E-2</MEAN_MOTION_DOT><MEAN_MOTION_DDOT>0</MEAN_MOTION_DDOT></tleParameters></data></segment></body></omm>
<omm id="CCSDS_OMM_VERS" version="2.0">
<header><CREATION_DATE/><ORIGINATOR/></header><body><segment><metadata><OBJECT_NAME>KUIPER-00033</OBJECT_NAME><OBJECT_ID>2025-088Y</OBJECT_ID><CENTER_NAME>EARTH</CENTER_NAME><REF_FRAME>TEME</REF_FRAME><TIME_SYSTEM>UTC</TIME_SYSTEM><MEAN_ELEMENT_THEORY>SGP4</MEAN_ELEMENT_THEORY></metadata><data><meanElements><EPOCH>2025-08-02T23:10:23.225376</EPOCH><MEAN_MOTION>14.80494115</MEAN_MOTION><ECCENTRICITY>.0003199</ECCENTRICITY><INCLINATION>51.9021</INCLINATION><RA_OF_ASC_NODE>13.7936</RA_OF_ASC_NODE><ARG_OF_PERICENTER>161.5238</ARG_OF_PERICENTER><MEAN_ANOMALY>198.5841</MEAN_ANOMALY></meanElements><tleParameters><EPHEMERIS_TYPE>0</EPHEMERIS_TYPE><CLASSIFICATION_TYPE>U</CLASSIFICATION_TYPE><NORAD_CAT_ID>63746</NORAD_CAT_ID><ELEMENT_SET_NO>999</ELEMENT_SET_NO><REV_AT_EPOCH>1521</REV_AT_EPOCH><BSTAR>.10211E-3</BSTAR><MEAN_MOTION_DOT>.566E-5</MEAN_MOTION_DOT><MEAN_MOTION_DDOT>0</MEAN_MOTION_DDOT></tleParameters></data></segment></body></omm>
<omm id="CCSDS_OMM_VERS" version="2.0">
<header><CREATION_DATE/><ORIGINATOR/></header><body><segment><metadata><OBJECT_NAME>KUIPER-00034</OBJECT_NAME><OBJECT_ID>2025-088Z</OBJECT_ID><CENTER_NAME>EARTH</CENTER_NAME><REF_FRAME>TEME</REF_FRAME><TIME_SYSTEM>UTC</TIME_SYSTEM><MEAN_ELEMENT_THEORY>SGP4</MEAN_ELEMENT_THEORY></metadata><data><meanElements><EPOCH>2025-08-02T09:29:38.035104</EPOCH><MEAN_MOTION>15.38039620</MEAN_MOTION><ECCENTRICITY>.0001485</ECCENTRICITY><INCLINATION>51.8721</INCLINATION><RA_OF_ASC_NODE>356.5097</RA_OF_ASC_NODE><ARG_OF_PERICENTER>98.9736</ARG_OF_PERICENTER><MEAN_ANOMALY>261.1419</MEAN_ANOMALY></meanElements><tleParameters><EPHEMERIS_TYPE>0</EPHEMERIS_TYPE><CLASSIFICATION_TYPE>U</CLASSIFICATION_TYPE><NORAD_CAT_ID>63747</NORAD_CAT_ID><ELEMENT_SET_NO>999</ELEMENT_SET_NO><REV_AT_EPOCH>1508</REV_AT_EPOCH><BSTAR>.43772E-3</BSTAR><MEAN_MOTION_DOT>.16284E-3</MEAN_MOTION_DOT><MEAN_MOTION_DDOT>0</MEAN_MOTION_DDOT></tleParameters></data></segment></body></omm>

</ndm>
