KUIPER-00027            
1 63740U 25088S   25214.91668981  .00040339  00000+0  11142-2 0  9994
2 63740  51.8733 354.0354 0001610 101.0540 246.4933 15.36660038 15052
KUIPER-00028            
1 63741U 25088T   25214.38927805  .00018403  00000+0  48608-3 0  9994
2 63741  51.8723 356.4651 0001651  62.7558 297.3597 15.38487901 15391
KUIPER-00029            
1 63742U 25088U   25214.38398492  .00017267  00000+0  47476-3 0  9998
2 63742  51.8715 357.1560 0004709  94.0309 266.1216 15.37285916 14919
KUIPER-00030            
1 63743U 25088V   25215.25002315 -.02084847  00000+0 -14160+0 0  9994
2 63743  51.8881 358.2113 0012646  75.9808  33.8093 15.09825706 15257
KUIPER-00031            
1 63744U 25088W   25215.25002315  .00069047  00000+0  19759-2 0  9998
2 63744  51.8713 352.6132 0003348  99.2494 197.5912 15.35309177 15043
KUIPER-00032            
1 63745U 25088X   25215.25002315 -.00667114  00000+0 -25458-1 0  9992
2 63745  51.8752 353.0777 0005233  68.6068 343.7613 15.28601051 16041
KUIPER-00033            
1 63746U 25088Y   25214.96554659  .00000566  00000+0  10211-3 0  9996
2 63746  51.9021  13.7936 0003199 161.5238 198.5841 14.80494115 15215
KUIPER-00034            
1 63747U 25088Z   25214.39557911  .00016284  00000+0  43772-3 0  9990
2 63747  51.8721 356.5097 0001485  98.9736 261.1419 15.38039620 15083
